{"type": "FeatureCollection", "features": [ {"type": "Feature", "properties": {"norad_id": 66540, "name": "STARLINK-35818", "group": "last-30-days", "lat": 32.25116569956023, "lon": -145.28625676185248, "alt_km": 395.68609827949786, "timestamp": "2025-12-08T17:43:03.632334+00:00", "meta": {"OBJECT_NAME": "STARLINK-35818", "OBJECT_ID": "2025-265AA", "EPOCH": "2025-12-08T06:00:02.999808", "MEAN_MOTION": 15.57925253, "ECCENTRICITY": 0.00012764, "INCLINATION": 43.0008, "RA_OF_ASC_NODE": 80.2153, "ARG_OF_PERICENTER": 268.0569, "MEAN_ANOMALY": 0.8846, "EPHEMERIS_TYPE": 0, "CLASSIFICATION_TYPE": "U", "NORAD_CAT_ID": 66540, "ELEMENT_SET_NO": 999, "REV_AT_EPOCH": 427, "BSTAR": -0.029463218, "MEAN_MOTION_DOT": -0.01985723, "MEAN_MOTION_DDOT": 0}, "tle": {"line1": "1 66540U 25265AA  25342.25003472 -.01985723  00000+0 -29463-1 0  9991", "line2": "2 66540  43.0008  80.2153 0001276 268.0569   0.8846 15.57925253  4272"}}, "geometry": {"type": "Point", "coordinates": [-145.28625676185248, 32.25116569956023]}}, {"type": "Feature", "properties": {"norad_id": 66541, "name": "STARLINK-35796", "group": "last-30-days", "lat": 31.273630690063325, "lon": -143.34932960998444, "alt_km": 395.75471869625017, "timestamp": "2025-12-08T17:43:03.632345+00:00", "meta": {"OBJECT_NAME": "STARLINK-35796", "OBJECT_ID": "2025-265AB", "EPOCH": "2025-12-08T06:00:02.999808", "MEAN_MOTION": 15.57925963, "ECCENTRICITY": 0.00012775, "INCLINATION": 43.0007, "RA_OF_ASC_NODE": 80.2103, "ARG_OF_PERICENTER": 263.8519, "MEAN_ANOMALY": 7.0074, "EPHEMERIS_TYPE": 0, "CLASSIFICATION_TYPE": "U", "NORAD_CAT_ID": 66541, "ELEMENT_SET_NO": 999, "REV_AT_EPOCH": 427, "BSTAR": -0.029472086, "MEAN_MOTION_DOT": -0.01986294, "MEAN_MOTION_DDOT": 0}, "tle": {"line1": "1 66541U 25265AB  25342.25003472 -.01986294  00000+0 -29472-1 0  9996", "line2": "2 66541  43.0007  80.2103 0001277 263.8519   7.0074 15.57925963  4276"}}, "geometry": {"type": "Point", "coordinates": [-143.34932960998444, 31.273630690063325]}}, {"type": "Feature", "properties": {"norad_id": 66542, "name": "STARLINK-35833", "group": "last-30-days", "lat": 30.268946838609505, "lon": -141.455698656958, "alt_km": 395.96760099559924, "timestamp": "2025-12-08T17:43:03.632355+00:00", "meta": {"OBJECT_NAME": "STARLINK-35833", "OBJECT_ID": "2025-265AC", "EPOCH": "2025-12-08T06:00:02.999808", "MEAN_MOTION": 15.57931077, "ECCENTRICITY": 0.00013481, "INCLINATION": 43.0004, "RA_OF_ASC_NODE": 80.2054, "ARG_OF_PERICENTER": 265.21, "MEAN_ANOMALY": 7.5648, "EPHEMERIS_TYPE": 0, "CLASSIFICATION_TYPE": "U", "NORAD_CAT_ID": 66542, "ELEMENT_SET_NO": 999, "REV_AT_EPOCH": 427, "BSTAR": -0.029629661, "MEAN_MOTION_DOT": -0.01995978, "MEAN_MOTION_DDOT": 0}, "tle": {"line1": "1 66542U 25265AC  25342.25003472 -.01995978  00000+0 -29630-1 0  9992", "line2": "2 66542  43.0004  80.2054 0001348 265.2100   7.5648 15.57931077  4275"}}, "geometry": {"type": "Point", "coordinates": [-141.455698656958, 30.268946838609505]}}, {"type": "Feature", "properties": {"norad_id": 66543, "name": "STARLINK-35315", "group": "last-30-days", "lat": 29.236924042066843, "lon": -139.59943343447662, "alt_km": 396.1781106824137, "timestamp": "2025-12-08T17:43:03.632365+00:00", "meta": {"OBJECT_NAME": "STARLINK-35315", "OBJECT_ID": "2025-265AD", "EPOCH": "2025-12-08T06:00:02.999808", "MEAN_MOTION": 15.57932878, "ECCENTRICITY": 0.00014047, "INCLINATION": 43.0006, "RA_OF_ASC_NODE": 80.2004, "ARG_OF_PERICENTER": 267.4143, "MEAN_ANOMALY": 7.2761, "EPHEMERIS_TYPE": 0, "CLASSIFICATION_TYPE": "U", "NORAD_CAT_ID": 66543, "ELEMENT_SET_NO": 999, "REV_AT_EPOCH": 416, "BSTAR": -0.029680008, "MEAN_MOTION_DOT": -0.01999106, "MEAN_MOTION_DDOT": 0}, "tle": {"line1": "1 66543U 25265AD  25342.25003472 -.01999106  00000+0 -29680-1 0  9995", "line2": "2 66543  43.0006  80.2004 0001404 267.4143   7.2761 15.57932878  4168"}}, "geometry": {"type": "Point", "coordinates": [-139.59943343447662, 29.236924042066843]}}, {"type": "Feature", "properties": {"norad_id": 66544, "name": "STARLINK-35728", "group": "last-30-days", "lat": 28.177794862001985, "lon": -137.77867580743816, "alt_km": 396.2685298140523, "timestamp": "2025-12-08T17:43:03.632400+00:00", "meta": {"OBJECT_NAME": "STARLINK-35728", "OBJECT_ID": "2025-265AE", "EPOCH": "2025-12-08T06:00:02.999808", "MEAN_MOTION": 15.57930009, "ECCENTRICITY": 0.00013965, "INCLINATION": 43.0001, "RA_OF_ASC_NODE": 80.1954, "ARG_OF_PERICENTER": 265.2248, "MEAN_ANOMALY": 11.3849, "EPHEMERIS_TYPE": 0, "CLASSIFICATION_TYPE": "U", "NORAD_CAT_ID": 66544, "ELEMENT_SET_NO": 999, "REV_AT_EPOCH": 427, "BSTAR": -0.029608658, "MEAN_MOTION_DOT": -0.01994704, "MEAN_MOTION_DDOT": 0}, "tle": {"line1": "1 66544U 25265AE  25342.25003472 -.01994704  00000+0 -29609-1 0  9996", "line2": "2 66544  43.0001  80.1954 0001396 265.2248  11.3849 15.57930009  4278"}}, "geometry": {"type": "Point", "coordinates": [-137.77867580743816, 28.177794862001985]}}, {"type": "Feature", "properties": {"norad_id": 66545, "name": "SHIJIAN-30A", "group": "last-30-days", "lat": 15.606026145177974, "lon": 4.3140006867396385, "alt_km": 510.9621524683798, "timestamp": "2025-12-08T17:43:03.632412+00:00", "meta": {"OBJECT_NAME": "SHIJIAN-30A", "OBJECT_ID": "2025-266A", "EPOCH": "2025-12-08T08:08:02.995584", "MEAN_MOTION": 15.1551276, "ECCENTRICITY": 0.00127993, "INCLINATION": 51.7996, "RA_OF_ASC_NODE": 353.4787, "ARG_OF_PERICENTER": 340.4731, "MEAN_ANOMALY": 19.5754, "EPHEMERIS_TYPE": 0, "CLASSIFICATION_TYPE": "U", "NORAD_CAT_ID": 66545, "ELEMENT_SET_NO": 999, "REV_AT_EPOCH": 291, "BSTAR": 0.00067614531, "MEAN_MOTION_DOT": 0.00012707, "MEAN_MOTION_DDOT": 0}, "tle": {"line1": "1 66545U 25266A   25342.33892356  .00012707  00000+0  67615-3 0  9996", "line2": "2 66545  51.7996 353.4787 0012799 340.4731  19.5754 15.15512760  2918"}}, "geometry": {"type": "Point", "coordinates": [4.3140006867396385, 15.606026145177974]}}, {"type": "Feature", "properties": {"norad_id": 66546, "name": "SHIJIAN-30B", "group": "last-30-days", "lat": 12.584914319739, "lon": 1.7388545684128554, "alt_km": 511.9120264333169, "timestamp": "2025-12-08T17:43:03.632422+00:00", "meta": {"OBJECT_NAME": "SHIJIAN-30B", "OBJECT_ID": "2025-266B", "EPOCH": "2025-12-08T08:09:06.870240", "MEAN_MOTION": 15.15601642, "ECCENTRICITY": 0.00104646, "INCLINATION": 51.7978, "RA_OF_ASC_NODE": 353.4808, "ARG_OF_PERICENTER": 343.5769, "MEAN_ANOMALY": 16.4867, "EPHEMERIS_TYPE": 0, "CLASSIFICATION_TYPE": "U", "NORAD_CAT_ID": 66546, "ELEMENT_SET_NO": 999, "REV_AT_EPOCH": 291, "BSTAR": 0.00078891908, "MEAN_MOTION_DOT": 0.00014912, "MEAN_MOTION_DDOT": 0}, "tle": {"line1": "1 66546U 25266B   25342.33966285  .00014912  00000+0  78892-3 0  9999", "line2": "2 66546  51.7978 353.4808 0010464 343.5769  16.4867 15.15601642  2914"}}, "geometry": {"type": "Point", "coordinates": [1.7388545684128554, 12.584914319739]}}, {"type": "Feature", "properties": {"norad_id": 66547, "name": "SHIJIAN-30C", "group": "last-30-days", "lat": 9.713769684223692, "lon": -0.6311962758858545, "alt_km": 512.0715040123268, "timestamp": "2025-12-08T17:43:03.632435+00:00", "meta": {"OBJECT_NAME": "SHIJIAN-30C", "OBJECT_ID": "2025-266C", "EPOCH": "2025-12-08T06:35:08.461536", "MEAN_MOTION": 15.15611445, "ECCENTRICITY": 0.00113845, "INCLINATION": 51.7987, "RA_OF_ASC_NODE": 353.7954, "ARG_OF_PERICENTER": 335.5971, "MEAN_ANOMALY": 24.4466, "EPHEMERIS_TYPE": 0, "CLASSIFICATION_TYPE": "U", "NORAD_CAT_ID": 66547, "ELEMENT_SET_NO": 999, "REV_AT_EPOCH": 290, "BSTAR": 0.00068804431, "MEAN_MOTION_DOT": 0.00012968, "MEAN_MOTION_DDOT": 0}, "tle": {"line1": "1 66547U 25266C   25342.27440349  .00012968  00000+0  68804-3 0  9992", "line2": "2 66547  51.7987 353.7954 0011384 335.5971  24.4466 15.15611445  2903"}}, "geometry": {"type": "Point", "coordinates": [-0.6311962758858545, 9.713769684223692]}}, {"type": "Feature", "properties": {"norad_id": 66548, "name": "CZ-2C R/B", "group": "last-30-days", "lat": -39.70878914796537, "lon": -50.04809864450673, "alt_km": 527.9006108860485, "timestamp": "2025-12-08T17:43:03.632446+00:00", "meta": {"OBJECT_NAME": "CZ-2C R/B", "OBJECT_ID": "2025-266D", "EPOCH": "2025-12-08T06:59:03.304608", "MEAN_MOTION": 15.3003794, "ECCENTRICITY": 0.00842099, "INCLINATION": 52.0568, "RA_OF_ASC_NODE": 352.4715, "ARG_OF_PERICENTER": 157.8548, "MEAN_ANOMALY": 202.611, "EPHEMERIS_TYPE": 0, "CLASSIFICATION_TYPE": "U", "NORAD_CAT_ID": 66548, "ELEMENT_SET_NO": 999, "REV_AT_EPOCH": 293, "BSTAR": 0.00042330292, "MEAN_MOTION_DOT": 0.00013536, "MEAN_MOTION_DDOT": 0}, "tle": {"line1": "1 66548U 25266D   25342.29101047  .00013536  00000+0  42330-3 0  9992", "line2": "2 66548  52.0568 352.4715 0084209 157.8548 202.6110 15.30037940  2933"}}, "geometry": {"type": "Point", "coordinates": [-50.04809864450673, -39.70878914796537]}}, {"type": "Feature", "properties": {"norad_id": 66549, "name": "SHIJIAN-28", "group": "last-30-days", "lat": 6.047070608511827, "lon": -63.520350884586925, "alt_km": 30178.10463498178, "timestamp": "2025-12-08T17:43:03.632460+00:00", "meta": {"OBJECT_NAME": "SHIJIAN-28", "OBJECT_ID": "2025-277A", "EPOCH": "2025-11-30T18:06:43.124256", "MEAN_MOTION": 2.28019775, "ECCENTRICITY": 0.7300519, "INCLINATION": 14.4344, "RA_OF_ASC_NODE": 275.4056, "ARG_OF_PERICENTER": 179.5026, "MEAN_ANOMALY": 182.358, "EPHEMERIS_TYPE": 0, "CLASSIFICATION_TYPE": "U", "NORAD_CAT_ID": 66549, "ELEMENT_SET_NO": 999, "REV_AT_EPOCH": 4, "BSTAR": 0.00062085, "MEAN_MOTION_DOT": 6.315e-05, "MEAN_MOTION_DDOT": 0}, "tle": {"line1": "1 66549U 25277A   25334.75466579  .00006315  00000+0  62085-3 0  9997", "line2": "2 66549  14.4344 275.4056 7300519 179.5026 182.3580  2.28019775    48"}}, "geometry": {"type": "Point", "coordinates": [-63.520350884586925, 6.047070608511827]}}]}